SAUDISAT 1C (SO-50)     
1 27607U 02058C   26200.52213065  .00000353  00000+0  59687-4 0  9990
2 27607  64.5520  28.9362 0074394 256.4806 102.8004 14.83102948269253
SAUDISAT 2              
1 28371U 04025F   26200.45014969  .00000087  00000+0  30418-4 0  9994
2 28371  98.5523 201.2681 0024337 194.8633 165.1852 14.56699531170441
SAUDISAT 3              
1 31118U 07012B   26200.42355070  .00000105  00000+0  25080-4 0  9994
2 31118  98.1470 150.8484 0015802 122.1630 238.1112 14.71441549 32481
PISAT                   
1 41784U 16059B   26200.49833654  .00000417  00000+0  78635-4 0  9991
2 41784  97.8193 199.5653 0030551 101.6970 258.7667 14.69033802524489
FLYING LAPTOP           
1 42831U 17042G   26200.64559456  .00002014  00000+0  16035-3 0  9990
2 42831  97.4833 354.9616 0019459  18.4043 341.7881 15.01330532491320
SALSAT                  
1 46495U 20068K   26200.45326485  .00003827  00000+0  13372-3 0  9999
2 46495  97.8865 205.4942 0009671 177.8105 182.3178 15.30206359320291
