OBJECT_NAME,OBJECT_ID,EPOCH,MEAN_MOTION,ECCENTRICITY,INCLINATION,RA_OF_ASC_NODE,ARG_OF_PERICENTER,MEAN_ANOMALY,EPHEMERIS_TYPE,CLASSIFICATION_TYPE,NORAD_CAT_ID,ELEMENT_SET_NO,REV_AT_EPOCH,BSTAR,MEAN_MOTION_DOT,MEAN_MOTION_DDOT
SAUDISAT 1C (SO-50),2002-058C,2026-07-19T12:31:52.088160,14.83102948,.00743947,64.5520,28.9362,256.4806,102.8004,0,U,27607,999,26925,.59686677E-4,.353E-5,0
SAUDISAT 2,2004-025F,2026-07-19T10:48:12.933216,14.56699531,.00243375,98.5523,201.2681,194.8633,165.1852,0,U,28371,999,17044,.30418063E-4,.87E-6,0
SAUDISAT 3,2007-012B,2026-07-19T10:09:54.780480,14.71441549,.00158021,98.1470,150.8484,122.1630,238.1112,0,U,31118,999,3248,.2508046E-4,.105E-5,0
PISAT,2016-059B,2026-07-19T11:57:36.277056,14.69033802,.00305515,97.8193,199.5653,101.6970,258.7667,0,U,41784,999,52448,.78635164E-4,.417E-5,0
FLYING LAPTOP,2017-042G,2026-07-19T15:29:39.369984,15.01330532,.00194592,97.4833,354.9616,18.4043,341.7881,0,U,42831,999,49132,.16034694E-3,.2014E-4,0
SALSAT,2020-068K,2026-07-19T10:52:42.083040,15.30206359,.00096718,97.8865,205.4942,177.8105,182.3178,0,U,46495,999,32029,.13371977E-3,.3827E-4,0
